start=new Date('2022-08-23T00:00:00.000Z').valueOf();
sats=[{"COUNTRY_CODE":"US","REV_AT_EPOCH":"4436","INCLINATION":"53.2173","EPOCH":"2022-08-22T19:12:34.926336","OBJECT_NAME":"STARLINK-3145","ECCENTRICITY":"0.00021210","RCS_SIZE":"LARGE","PERIOD":"95.438","MEAN_MOTION_DDOT":"0.0000000000000","RA_OF_ASC_NODE":"272.1032","MEAN_MOTION_DOT":"0.00001840","APOAPSIS":"541.237","ELEMENT_SET_NO":"999","CENTER_NAME":"EARTH","PERIAPSIS":"538.303","FILE":"3544111","OBJECT_TYPE":"PAYLOAD","GP_ID":"210753368","MEAN_MOTION":"15.08831911","TLE_LINE2":"2 49455  53.2173 272.1032 0002121  35.5645 324.5489 15.08831911 44360","CLASSIFICATION_TYPE":"U","MEAN_ELEMENT_THEORY":"SGP4","REF_FRAME":"TEME","OBJECT_ID":"2021-104AZ","EPHEMERIS_TYPE":"0","DECAY_DATE":null,"MEAN_ANOMALY":"324.5489","BSTAR":"0.00013368000000","TIME_SYSTEM":"UTC","SITE":"AFETR","NORAD_CAT_ID":"49455","ARG_OF_PERICENTER":"35.5645","SEMIMAJOR_AXIS":"6917.905","LAUNCH_DATE":"2021-11-13","TLE_LINE1":"1 49455U 21104AZ  22234.80040424  .00001840  00000-0  13368-3 0  9997"},{"NORAD_CAT_ID":"49456","SITE":"AFETR","ARG_OF_PERICENTER":"53.0720","TLE_LINE1":"1 49456U 21104BA  22234.80777064 -.00000304  00000-0 -10020-5 0  9995","LAUNCH_DATE":"2021-11-13","SEMIMAJOR_AXIS":"6917.924","OBJECT_ID":"2021-104BA","REF_FRAME":"TEME","EPHEMERIS_TYPE":"0","DECAY_DATE":null,"BSTAR":"-0.00000100200000","MEAN_ANOMALY":"307.0419","TIME_SYSTEM":"UTC","MEAN_ELEMENT_THEORY":"SGP4","TLE_LINE2":"2 49456  53.2155 272.0841 0001606  53.0720 307.0419 15.08825694 43295","CLASSIFICATION_TYPE":"U","CENTER_NAME":"EARTH","PERIAPSIS":"538.678","FILE":"3544179","GP_ID":"210778892","OBJECT_TYPE":"PAYLOAD","MEAN_MOTION":"15.08825694","RA_OF_ASC_NODE":"272.0841","MEAN_MOTION_DDOT":"0.0000000000000","APOAPSIS":"540.900","ELEMENT_SET_NO":"999","MEAN_MOTION_DOT":"-0.00000304","OBJECT_NAME":"STARLINK-3124","RCS_SIZE":"LARGE","ECCENTRICITY":"0.00016060","PERIOD":"95.438","REV_AT_EPOCH":"4329","COUNTRY_CODE":"US","INCLINATION":"53.2155","EPOCH":"2022-08-22T19:23:11.383296"},{"SITE":"AFETR","NORAD_CAT_ID":"49457","LAUNCH_DATE":"2021-11-13","SEMIMAJOR_AXIS":"6917.924","TLE_LINE1":"1 49457U 21104BB  22234.79672864 -.00000107  00000-0  11396-4 0  9992","ARG_OF_PERICENTER":"62.0168","EPHEMERIS_TYPE":"0","REF_FRAME":"TEME","OBJECT_ID":"2021-104BB","TIME_SYSTEM":"UTC","DECAY_DATE":null,"BSTAR":"0.00001139600000","MEAN_ANOMALY":"298.0994","MEAN_ELEMENT_THEORY":"SGP4","CLASSIFICATION_TYPE":"U","TLE_LINE2":"2 49457  53.2181 272.1309 0001684  62.0168 298.0994 15.08825721 43295","FILE":"3544179","CENTER_NAME":"EARTH","PERIAPSIS":"538.624","MEAN_MOTION":"15.08825721","OBJECT_TYPE":"PAYLOAD","GP_ID":"210778643","MEAN_MOTION_DDOT":"0.0000000000000","RA_OF_ASC_NODE":"272.1309","MEAN_MOTION_DOT":"-0.00000107","APOAPSIS":"540.954","ELEMENT_SET_NO":"999","OBJECT_NAME":"STARLINK-3132","PERIOD":"95.438","ECCENTRICITY":"0.00016840","RCS_SIZE":"LARGE","COUNTRY_CODE":"US","REV_AT_EPOCH":"4329","EPOCH":"2022-08-22T19:07:17.354496","INCLINATION":"53.2181"},{"COUNTRY_CODE":"US","REV_AT_EPOCH":"4329","INCLINATION":"53.2187","EPOCH":"2022-08-22T19:17:52.542240","OBJECT_NAME":"STARLINK-3156","ECCENTRICITY":"0.00017890","RCS_SIZE":"LARGE","PERIOD":"95.438","RA_OF_ASC_NODE":"272.0933","MEAN_MOTION_DDOT":"0.0000000000000","MEAN_MOTION_DOT":"0.00001270","ELEMENT_SET_NO":"999","APOAPSIS":"541.016","CENTER_NAME":"EARTH","PERIAPSIS":"538.541","FILE":"3544179","OBJECT_TYPE":"PAYLOAD","GP_ID":"210777391","MEAN_MOTION":"15.08829279","CLASSIFICATION_TYPE":"U","TLE_LINE2":"2 49458  53.2187 272.0933 0001789  42.0725 318.0404 15.08829279 43298","MEAN_ELEMENT_THEORY":"SGP4","REF_FRAME":"TEME","OBJECT_ID":"2021-104BC","EPHEMERIS_TYPE":"0","MEAN_ANOMALY":"318.0404","DECAY_DATE":null,"BSTAR":"0.00009790500000","TIME_SYSTEM":"UTC","SITE":"AFETR","NORAD_CAT_ID":"49458","ARG_OF_PERICENTER":"42.0725","SEMIMAJOR_AXIS":"6917.913","LAUNCH_DATE":"2021-11-13","TLE_LINE1":"1 49458U 21104BC  22234.80408035  .00001270  00000-0  97905-4 0  9993"},{"MEAN_MOTION_DDOT":"0.0000000000000","RA_OF_ASC_NODE":"273.0399","MEAN_MOTION_DOT":"0.00000198","APOAPSIS":"540.834","ELEMENT_SET_NO":"999","FILE":"3544179","PERIAPSIS":"538.742","CENTER_NAME":"EARTH","MEAN_MOTION":"15.08826086","OBJECT_TYPE":"PAYLOAD","GP_ID":"210777641","COUNTRY_CODE":"US","REV_AT_EPOCH":"4326","EPOCH":"2022-08-22T14:15:49.812192","INCLINATION":"53.2162","OBJECT_NAME":"STARLINK-3141","PERIOD":"95.438","ECCENTRICITY":"0.00015120","RCS_SIZE":"LARGE","EPHEMERIS_TYPE":"0","REF_FRAME":"TEME","OBJECT_ID":"2021-104BD","TIME_SYSTEM":"UTC","DECAY_DATE":null,"MEAN_ANOMALY":"292.5800","BSTAR":"0.00003056300000","SITE":"AFETR","NORAD_CAT_ID":"49459","SEMIMAJOR_AXIS":"6917.923","LAUNCH_DATE":"2021-11-13","TLE_LINE1":"1 49459U 21104BD  22234.59432653  .00000198  00000-0  30563-4 0  9998","ARG_OF_PERICENTER":"67.5352","TLE_LINE2":"2 49459  53.2162 273.0399 0001512  67.5352 292.5800 15.08826086 43267","CLASSIFICATION_TYPE":"U","MEAN_ELEMENT_THEORY":"SGP4"},{"MEAN_MOTION_DOT":"0.00004324","ELEMENT_SET_NO":"999","APOAPSIS":"540.825","RA_OF_ASC_NODE":"273.0641","MEAN_MOTION_DDOT":"0.0000000000000","MEAN_MOTION":"15.08846678","OBJECT_TYPE":"PAYLOAD","GP_ID":"210778393","FILE":"3544179","PERIAPSIS":"538.625","CENTER_NAME":"EARTH","EPOCH":"2022-08-22T14:10:30.842400","INCLINATION":"53.2150","COUNTRY_CODE":"US","REV_AT_EPOCH":"4325","PERIOD":"95.437","ECCENTRICITY":"0.00015900","RCS_SIZE":"LARGE","OBJECT_NAME":"STARLINK-3140","TIME_SYSTEM":"UTC","DECAY_DATE":null,"BSTAR":"0.00028953000000","MEAN_ANOMALY":"304.5418","EPHEMERIS_TYPE":"0","REF_FRAME":"TEME","OBJECT_ID":"2021-104BE","LAUNCH_DATE":"2021-11-13","SEMIMAJOR_AXIS":"6917.860","TLE_LINE1":"1 49460U 21104BE  22234.59063475  .00004324  00000-0  28953-3 0  9996","ARG_OF_PERICENTER":"55.5725","SITE":"AFETR","NORAD_CAT_ID":"49460","CLASSIFICATION_TYPE":"U","TLE_LINE2":"2 49460  53.2150 273.0641 0001590  55.5725 304.5418 15.08846678 43250","MEAN_ELEMENT_THEORY":"SGP4"},{"MEAN_MOTION_DDOT":"0.0000000000000","RA_OF_ASC_NODE":"204.3155","MEAN_MOTION_DOT":"-0.00000255","APOAPSIS":"541.187","ELEMENT_SET_NO":"999","FILE":"3543757","PERIAPSIS":"538.387","CENTER_NAME":"EARTH","MEAN_MOTION":"15.08826292","OBJECT_TYPE":"PAYLOAD","GP_ID":"210743470","COUNTRY_CODE":"US","REV_AT_EPOCH":"3997","EPOCH":"2022-08-22T07:22:32.728800","INCLINATION":"53.2169","OBJECT_NAME":"STARLINK-3219","PERIOD":"95.438","ECCENTRICITY":"0.00020240","RCS_SIZE":"LARGE","EPHEMERIS_TYPE":"0","REF_FRAME":"TEME","OBJECT_ID":"2021-115A","TIME_SYSTEM":"UTC","DECAY_DATE":null,"BSTAR":"0.00000208470000","MEAN_ANOMALY":"302.2636","SITE":"AFETR","NORAD_CAT_ID":"49724","LAUNCH_DATE":"2021-12-02","SEMIMAJOR_AXIS":"6917.922","TLE_LINE1":"1 49724U 21115A   22234.30732325 -.00000255  00000-0  20847-5 0  9993","ARG_OF_PERICENTER":"57.8552","CLASSIFICATION_TYPE":"U","TLE_LINE2":"2 49724  53.2169 204.3155 0002024  57.8552 302.2636 15.08826292 39977","MEAN_ELEMENT_THEORY":"SGP4"},{"TLE_LINE2":"2 49725  53.2165 204.1792 0001764  62.7933 297.3239 15.08837264 39982","CLASSIFICATION_TYPE":"U","MEAN_ELEMENT_THEORY":"SGP4","TIME_SYSTEM":"UTC","MEAN_ANOMALY":"297.3239","DECAY_DATE":null,"BSTAR":"0.00014239000000","EPHEMERIS_TYPE":"0","REF_FRAME":"TEME","OBJECT_ID":"2021-115B","SEMIMAJOR_AXIS":"6917.889","LAUNCH_DATE":"2021-12-02","TLE_LINE1":"1 49725U 21115B   22234.34042510  .00001979  00000-0  14239-3 0  9997","ARG_OF_PERICENTER":"62.7933","SITE":"AFETR","NORAD_CAT_ID":"49725","EPOCH":"2022-08-22T08:10:12.728640","INCLINATION":"53.2165","COUNTRY_CODE":"US","REV_AT_EPOCH":"3998","PERIOD":"95.438","ECCENTRICITY":"0.00017640","RCS_SIZE":"LARGE","OBJECT_NAME":"STARLINK-3218","MEAN_MOTION_DOT":"0.00001979","ELEMENT_SET_NO":"999","APOAPSIS":"540.974","RA_OF_ASC_NODE":"204.1792","MEAN_MOTION_DDOT":"0.0000000000000","MEAN_MOTION":"15.08837264","OBJECT_TYPE":"PAYLOAD","GP_ID":"210744219","FILE":"3543757","CENTER_NAME":"EARTH","PERIAPSIS":"538.533"},{"INCLINATION":"53.2165","EPOCH":"2022-08-22T15:11:27.222144","REV_AT_EPOCH":"3988","COUNTRY_CODE":"US","RCS_SIZE":"LARGE","ECCENTRICITY":"0.00017110","PERIOD":"95.438","OBJECT_NAME":"STARLINK-3237","APOAPSIS":"540.941","ELEMENT_SET_NO":"999","MEAN_MOTION_DOT":"-0.00000058","RA_OF_ASC_NODE":"212.8693","MEAN_MOTION_DDOT":"0.0000000000000","GP_ID":"210778660","OBJECT_TYPE":"PAYLOAD","MEAN_MOTION":"15.08836035","CENTER_NAME":"EARTH","PERIAPSIS":"538.574","FILE":"3544179","TLE_LINE2":"2 49726  53.2165 212.8693 0001711  56.5638 303.5518 15.08836035 39888","CLASSIFICATION_TYPE":"U","MEAN_ELEMENT_THEORY":"SGP4","DECAY_DATE":null,"BSTAR":"0.00001446000000","MEAN_ANOMALY":"303.5518","TIME_SYSTEM":"UTC","OBJECT_ID":"2021-115C","REF_FRAME":"TEME","EPHEMERIS_TYPE":"0","ARG_OF_PERICENTER":"56.5638","TLE_LINE1":"1 49726U 21115C   22234.63295396 -.00000058  00000-0  14460-4 0  9997","LAUNCH_DATE":"2021-12-02","SEMIMAJOR_AXIS":"6917.893","SITE":"AFETR","NORAD_CAT_ID":"49726"},{"OBJECT_ID":"2021-115D","REF_FRAME":"TEME","EPHEMERIS_TYPE":"0","BSTAR":"0.00013483000000","DECAY_DATE":null,"MEAN_ANOMALY":"301.7043","TIME_SYSTEM":"UTC","SITE":"AFETR","NORAD_CAT_ID":"49727","ARG_OF_PERICENTER":"58.4119","TLE_LINE1":"1 49727U 21115D   22234.63663180  .00001858  00000-0  13483-3 0  9999","SEMIMAJOR_AXIS":"6917.879","LAUNCH_DATE":"2021-12-02","TLE_LINE2":"2 49727  53.2157 212.8530 0001742  58.4119 301.7043 15.08840615 39881","CLASSIFICATION_TYPE":"U","MEAN_ELEMENT_THEORY":"SGP4","MEAN_MOTION_DDOT":"0.0000000000000","RA_OF_ASC_NODE":"212.8530","APOAPSIS":"540.949","ELEMENT_SET_NO":"999","MEAN_MOTION_DOT":"0.00001858","CENTER_NAME":"EARTH","PERIAPSIS":"538.538","FILE":"3544179","GP_ID":"210777408","OBJECT_TYPE":"PAYLOAD","MEAN_MOTION":"15.08840615","REV_AT_EPOCH":"3988","COUNTRY_CODE":"US","INCLINATION":"53.2157","EPOCH":"2022-08-22T15:16:44.987520","OBJECT_NAME":"STARLINK-3242","RCS_SIZE":"LARGE","ECCENTRICITY":"0.00017420","PERIOD":"95.438"}];
